[{"OBJECT_NAME":"STARLINK-32744","OBJECT_ID":"2025-003Y","EPOCH":"2026-03-09T00:10:01.664544","MEAN_MOTION":15.27597765,"ECCENTRICITY":0.00013706,"INCLINATION":43.0018,"RA_OF_ASC_NODE":293.1311,"ARG_OF_PERICENTER":268.9979,"MEAN_ANOMALY":91.0716,"EPHEMERIS_TYPE":0,"CLASSIFICATION_TYPE":"U","NORAD_CAT_ID":62509,"ELEMENT_SET_NO":999,"REV_AT_EPOCH":6644,"BSTAR":0.0012858497,"MEAN_MOTION_DOT":0.0003531,"MEAN_MOTION_DDOT":0},{"OBJECT_NAME":"FLOCK 4G-10","OBJECT_ID":"2025-009BP","EPOCH":"2026-03-09T16:59:55.292640","MEAN_MOTION":15.27155944,"ECCENTRICITY":0.00034694,"INCLINATION":97.3967,"RA_OF_ASC_NODE":150.5883,"ARG_OF_PERICENTER":341.4844,"MEAN_ANOMALY":18.6269,"EPHEMERIS_TYPE":0,"CLASSIFICATION_TYPE":"U","NORAD_CAT_ID":62670,"ELEMENT_SET_NO":999,"REV_AT_EPOCH":12134,"BSTAR":0.00052624432,"MEAN_MOTION_DOT":0.00013952,"MEAN_MOTION_DDOT":0}]
